series,prefecture,name,address,latitude,longitude,group
primagi,愛知県,GiGO mozoワンダーシティ,愛知県名古屋市西区二方町40 mozoﾜﾝﾀﾞｰｼﾃｨｼﾈﾏ棟,35.227308,136.884499,1
primagi,愛知県,GiGOイオンタウン刈谷,愛知県刈谷市東境町京和1,35.038865,137.028774,1
primagi,愛知県,GiGOイオンタウン名西,愛知県名古屋市西区香呑町6-49-1,35.203999,136.892811,1
primagi,愛知県,GIGOイオンモール木曽川,愛知県一宮市木曽川町黒田字南八ﾂヶ池25-1 ｲｵﾝﾓｰﾙ木曽川3F?,35.349585,136.773647,1
primagi,愛知県,GiGOギャラリエアピタ知立,愛知県知立市長篠町大山１８－１ギャラリエアピタ１Ｆ,34.997845,137.052979,1
primagi,愛知県,GiGOプライムツリー赤池,愛知県日進市赤池町箕ノ手１番,35.108621,137.024397,1
primagi,愛知県,GiGO安城,愛知県安城市百石町2-35-13,34.947333,137.073167,1
primagi,愛知県,GiGO春日井,愛知県春日井市岩野町4180,35.269455,136.959883,1
primagi,愛知県,GiGO東名ボール,愛知県瀬戸市西原町2-114,35.209151,137.062940,1
primagi,愛知県,GiGO尾西,愛知県一宮市篭屋3-9-7 ｱｿﾋﾞｯｸｽびさい1F,35.309199,136.771506,1
primagi,愛知県,GiGO豊橋飯村,愛知県豊橋市飯村町字西山25-121,34.749323,137.413953,1
primagi,愛知県,LABI名古屋,愛知県名古屋市中村区名駅1-2-5,35.168109,136.884617,1
primagi,愛知県,MIRAINOイオンモール豊川,愛知県豊川市白鳥町兎足1-16 ｲｵﾝﾓｰﾙ豊川3階,34.825548,137.351219,2
primagi,愛知県,namcoアピタ稲沢店,愛知県稲沢市天池五反田町1番地ｱﾋﾟﾀ稲沢店,35.253191,136.771849,1
primagi,愛知県,namcoイオンモールナゴヤドーム前店,愛知県名古屋市東区矢田南4-102-3ｲｵﾝﾓｰﾙﾅｺﾞﾔﾄﾞｰﾑ前3F,35.187060,136.944994,2
primagi,愛知県,namcoイオンモール大高店,愛知県名古屋市緑区南大高二丁目450ｲｵﾝﾓｰﾙ大高3F,35.052973,136.947459,2
primagi,愛知県,namcoイオンモール長久手店,愛知県長久手市長久手中央土地区画整理事業地内5､10､11街区ｲｵﾝﾓｰﾙ長久手3F,35.184115,137.048533,1
primagi,愛知県,namcoイオンモール熱田店,愛知県名古屋市熱田区六野1-2-11ｲｵﾝﾓｰﾙ熱田4F,35.133402,136.910645,1
primagi,愛知県,namcoエアポートウォーク名古屋店,愛知県西春日井郡豊山町大字豊場字林先1番地8,35.245942,136.924823,1
primagi,愛知県,namcoテラスウォーク一宮店,愛知県一宮市両郷町一丁目2番地ﾃﾗｽｳｫｰｸ一宮2階,35.310497,136.816830,1
primagi,愛知県,namcoららぽーと愛知東郷店,愛知県愛知郡東郷町東郷中央土地区画事業62街区1､3ららぽｰと愛知東郷3F,35.098698,137.046930,1
primagi,愛知県,namcoららぽーと名古屋みなとアクルス店,愛知県名古屋市港区港明2丁目3番2号ららぽｰと名古屋みなとｱｸﾙｽ店3F,35.108390,136.882590,1
primagi,愛知県,namcoリーフウォーク稲沢店,愛知県稲沢市下津穂所１丁目1番地1 リーフウォーク稲沢ツリー棟 2階,35.259141,136.819400,1
primagi,愛知県,namcoリソラ大府店,愛知県大府市柊山町1丁目98番地ﾘｿﾗ大府ｼｮｯﾋﾟﾝｸﾞﾃﾗｽ2F,35.016330,136.957773,1
primagi,愛知県,namco則武新町店,愛知県名古屋市西区名古屋市西区則武新町３－１－１７ イオンモール名古屋ノリタケガーデン内,35.180110,136.879982,2
primagi,愛知県,namco名古屋駅前店,愛知県名古屋市中村区椿町6-6ﾆｯｾｲ名古屋駅西ﾋﾞﾙ別館B1,35.170512,136.879574,1
primagi,愛知県,NICOPAウイングタウン岡崎,愛知県岡崎市羽根町小豆坂3番地 ｳｨﾝｸﾞﾀｳﾝ2F,34.923412,137.174793,1
primagi,愛知県,NICOPAなるぱーく,愛知県名古屋市緑区浦里三丁目232 なるぱｰく2F,35.084437,136.946362,1
primagi,愛知県,SOYU BREMEN TOWN 鳴海,愛知県名古屋市緑区鳴海町字伝治山3番地9ｱﾋﾟﾀ鳴海店2F,35.094024,136.959385,1
primagi,愛知県,アズパークファミリータウン,愛知県名古屋市中川区新家1丁目2421番地ｱｽﾞﾊﾟｰｸSC2F,35.157083,136.806281,1
primagi,愛知県,アニメガ×ソフマップ名古屋店,愛知県名古屋市中村区椿町6-9 ﾋﾞｯｸｶﾒﾗ名古屋駅西店店内,35.170266,136.879587,2
primagi,愛知県,アピタプラス岩倉,愛知県岩倉市旭町1-25,35.276510,136.872964,1
primagi,愛知県,アピタ阿久比,愛知県知多郡阿久比町椋岡字徳吉1-12,34.920416,136.920567,1
primagi,愛知県,アピタ一宮店,愛知県一宮市両郷町1-2,35.310976,136.816542,1
primagi,愛知県,アピタ稲沢,愛知県稲沢市天池五反田町1,35.252090,136.770069,1
primagi,愛知県,アピタ岡崎北,愛知県岡崎市日名北町4-46,34.975102,137.152665,1
primagi,愛知県,アピタ蒲郡,愛知県蒲郡市港町17-10,34.820812,137.225449,1
primagi,愛知県,アピタ刈谷,愛知県刈谷市南桜町2-56-1,34.991048,137.004656,1
primagi,愛知県,アピタ向山,愛知県豊橋市向山町字中畑1-1,34.755017,137.401446,1
primagi,愛知県,アピタ港,愛知県名古屋市港区当知2丁目1501番地,35.109428,136.847780,1
primagi,愛知県,アピタ大府,愛知県大府市明成町4-133,35.021235,136.951801,1
primagi,愛知県,アピタ長久手,愛知県愛知郡長久手町戸田谷901-1,35.172568,137.038261,1
primagi,愛知県,アピタ名古屋空港,愛知県西春日井郡豊山町大字豊場字林先1-8,35.245942,136.924823,1
primagi,愛知県,アピタ名古屋北,愛知県名古屋市北区辻町9-1,35.209451,136.922800,1
primagi,愛知県,アピタ鳴海店,愛知県名古屋市緑区鳴海町伝治山3-9,35.094220,136.959655,1
primagi,愛知県,アピナ蒲郡,愛知県蒲郡市鹿島町浅井新田1-26 クラスポ蒲郡2階,34.810861,137.193527,1
primagi,愛知県,アピナ豊橋,愛知県豊橋市藤沢町141 MEGAﾄﾞﾝ･ｷﾎｰﾃ豊橋店ｱﾐｭｰｽﾞﾒﾝﾄ棟1階,35.971200,139.735998,1
primagi,愛知県,アミュージアム津島,愛知県津島市大字津島字北新開351番地ﾖｼﾂﾞﾔ津島本店ｼﾈﾏ館2F,35.175432,136.747136,1
primagi,愛知県,アミューズファクトリー常滑,愛知県常滑市りんくう町二丁目20番3 ｲｵﾝﾓｰﾙ常滑2階,34.882127,136.826363,1
primagi,愛知県,イオン春日井 3Fキッズインタイトー,愛知県春日井市柏井町4丁目17番地 ｲｵﾝ春日井店3Fｹﾞｰﾑｺｰﾅｰ,35.238021,136.962444,1
primagi,愛知県,イトーヨーカドー安城,愛知県安城市住吉町3-1-8,34.985149,137.083549,1
primagi,愛知県,イトーヨーカドー知多,愛知県知多市新知東町1-10-1,34.981489,136.866924,1
primagi,愛知県,イトーヨーカドー尾張旭,愛知県尾張旭市南原山町石原116-4,35.212497,137.051707,1
primagi,愛知県,カーニバルシードーム,愛知県西尾市上町南又七山35-2,34.872829,137.045607,1
primagi,愛知県,カラフルパーク有松,愛知県名古屋市緑区鳴海町字有松裏200番地 ｲｵﾝﾀｳﾝ有松1F,35.067436,136.972997,1
primagi,愛知県,ゲームランド岡崎,愛知県岡崎市戸崎町字外山38-5 ｲｵﾝﾓｰﾙ岡崎ｼﾈｺﾝ棟3F,34.937085,137.164565,1
primagi,愛知県,ソユープレイランドソピア 安城,愛知県安城市住吉町三丁目1番8号ｲﾄｰﾖｰｶﾄﾞｰ安城店2F,34.984806,137.083168,1
primagi,愛知県,タイトーステーション パールシティ稲沢,愛知県稲沢市井之口大坪町80-1 ﾊﾟｰﾙｼﾃｨ2F,35.237482,136.818339,1
primagi,愛知県,タイトーステーション 大須,愛知県名古屋市中区大須3-20-7,35.159680,136.904802,2
primagi,愛知県,タイトーステーション 弥富,愛知県弥富市五明蒲原1371-4,35.114272,136.718955,1
primagi,愛知県,タイトーステーションフェドラ大須,愛知県名古屋市中区大須3-30-31 萬松寺駐車場ﾋﾞﾙ1階･2階,35.159419,136.905414,2
primagi,愛知県,タイトーステーション豊田GAZA,愛知県豊田市喜多町1丁目140番地,35.087933,137.157385,1
primagi,愛知県,トイザらス西春日井,愛知県西春日井郡豊山町大字豊場字大山139-17,35.250261,136.906992,1
primagi,愛知県,トイザらス名古屋中川,愛知県名古屋市中川区新家1-2421ｱｽﾞﾊﾟｰｸ2F,35.157083,136.806281,1
primagi,愛知県,ハローズガーデン ワンダーフォレスト江南西,愛知県江南市松竹町上野205 VIAMALLｱﾋﾟﾀ江南西店2F,35.343146,136.855164,1
primagi,愛知県,ハローズガーデン安城南,愛知県安城市桜井町貝戸尻60 ｱﾋﾟﾀ安城南店2F,34.920238,137.087584,1
primagi,愛知県,ビックカメラプライムツリー赤池,愛知県日進市赤池町箕ﾉ手1番3階,35.119015,137.020377,1
primagi,愛知県,ビックカメラ名古屋JRゲートタワー,愛知県名古屋市中村区名駅1-1-39.10階,35.170616,136.882832,1
primagi,愛知県,ビックカメラ名古屋駅西,愛知県名古屋市中村区椿町6-9,35.170302,136.879560,1
primagi,愛知県,ファミリーアミューズメント新城,愛知県新城市宮ﾉ後68 ﾋﾟｱｺﾞ新城店2F,34.903486,137.495100,1
primagi,愛知県,ファミリーランド ドリーム,愛知県田原市田原町南新地76-1,34.672355,137.274535,1
primagi,愛知県,プラサカプコン稲沢,愛知県稲沢市長野7丁目1番2 ﾘｰﾌｳｫｰｸ稲沢2F,35.259125,136.819367,1
primagi,愛知県,プラサカプコン徳重,愛知県名古屋市緑区鳴海町字徳重18番地44 ﾋﾙｽﾞｳｫｰｸ徳重ﾞｶﾞｰﾃﾞﾝｽﾞ棟2F,35.088398,137.001162,1
primagi,愛知県,モーリーファンタジーf新瑞橋,愛知県名古屋市南区菊住1-7-10 ｲｵﾝ新瑞橋店3階,35.114758,136.935923,1
primagi,愛知県,モーリーファンタジーｔ-FACE,愛知県豊田市西町6-85-1 t-FACE A館　８階,35.086903,137.154927,2
primagi,愛知県,モーリーファンタジーナゴヤドーム前,愛知県名古屋市東区矢田南4-102-3 ｲｵﾝ3階,35.188883,136.944693,1
primagi,愛知県,モーリーファンタジービバホーム一宮,愛知県一宮市羽衣2丁目5−番2号 ビバホーム一宮店内,35.305077,136.812269,1
primagi,愛知県,モーリーファンタジーメガドンキ大和,愛知県一宮市大和町毛受字一本松19 ﾒｶﾞﾄﾞﾝｷUNY一宮大和店2F,35.296765,136.783073,1
primagi,愛知県,モーリーファンタジーワンダーシティ,愛知県名古屋市西区二方町40 ｲｵﾝﾜﾝﾀﾞｰｼﾃｨ店3階,35.225921,136.884280,1
primagi,愛知県,モーリーファンタジー岡崎,愛知県岡崎市上六名町字宮前1 ｼｮｯﾋﾟﾝｸﾞｾﾝﾀｰｺﾑﾀｳﾝ1F,34.951211,137.156036,1
primagi,愛知県,モーリーファンタジー岡崎南,愛知県岡崎市戸崎町字ばら山1-1 ｲｵﾝ岡崎南店3階,34.938966,137.164755,1
primagi,愛知県,モーリーファンタジー三好,愛知県みよし市三好町青木91 ｲｵﾝ三好店2階,35.092288,137.079540,1
primagi,愛知県,モーリーファンタジー守山,愛知県名古屋市守山区笹ヶ根3-1228 ｲｵﾝ守山店2階,35.234952,137.003892,1
primagi,愛知県,モーリーファンタジー春日井,愛知県春日井市柏井町4-17 ｲｵﾝ春日井店4階,35.238021,136.962444,1
primagi,愛知県,モーリーファンタジー常滑,愛知県常滑市りんくう町2-20-3 ｲｵﾝｽﾀｲﾙ常滑2F,34.880333,136.826609,1
primagi,愛知県,モーリーファンタジー新豊川,愛知県豊川市白鳥町兎足1-16,34.828128,137.384977,1
primagi,愛知県,モーリーファンタジー瀬戸みずの,愛知県瀬戸市みずの坂2-253 ｲｵﾝ瀬戸みずの店2階,35.243042,137.067533,1
primagi,愛知県,モーリーファンタジー大高,愛知県名古屋市緑区南大高2-450 ｲｵﾝ大高店3階,35.051976,136.948162,1
primagi,愛知県,モーリーファンタジー長久手,愛知県長久手市長久手中央土地区画整理地5､10､11街区 ｲｵﾝ3階,35.184115,137.048533,1
primagi,愛知県,モーリーファンタジー東浦,愛知県知多郡東浦町大字緒川字旭13-2 ｲｵﾝ東浦店1階,34.978850,136.974141,1
primagi,愛知県,モーリーファンタジー熱田,愛知県名古屋市熱田区六野一-2-11 ｲｵﾝ熱田店2階,35.137187,136.908907,1
primagi,愛知県,モーリーファンタジー半田,愛知県半田市有楽町8-7 ｲｵﾝ半田店2階,34.869337,136.917943,1
primagi,愛知県,モーリーファンタジー扶桑,愛知県丹羽郡扶桑町大字南山名字高塚5-1 ｲｵﾝ扶桑店2階,35.361248,136.899842,1
primagi,愛知県,モーリーファンタジー豊橋南,愛知県豊橋市野依町字落合1-12 ｲｵﾝ豊橋南店2階,34.709708,137.388251,1
primagi,愛知県,モーリーファンタジー豊川,愛知県豊川市開運通り2-31 ｲｵﾝ豊川店2階,34.827155,137.384425,1
primagi,愛知県,モーリーファンタジー豊田,愛知県豊田市広路町1-1 ｲｵﾝｽﾀｲﾙ豊田3階,35.078366,137.159651,1
primagi,愛知県,モーリーファンタジー名古屋茶屋,愛知県名古屋市港区西茶屋2-11 ｲｵﾝ名古屋茶屋店3階,35.102708,136.825019,1
primagi,愛知県,モーリーファンタジー名古屋東,愛知県名古屋市名東区猪子石原2-1701 ｲｵﾝﾘﾃｰﾙ名古屋東店1F,35.194959,136.993888,1
primagi,愛知県,モーリーファンタジー木曽川,愛知県一宮市木曽川町黒田字南八ﾂヶ池25-1 ｲｵﾝ木曽川店2階,35.348611,136.773611,1
primagi,愛知県,ヨドバシカメラマルチメディア名古屋松坂屋,愛知県名古屋市中区栄3-16-1,35.165291,136.907902,1
primagi,愛知県,安城メトロポリス,愛知県安城市浜富町6-8,34.955442,137.097109,1
primagi,愛知県,小牧メトロポリス,愛知県小牧市小牧市間々片山181番地,35.297765,136.909811,1
primagi,愛知県,西友岡崎店(バンダイナムコ),愛知県岡崎市戸崎町越舞2-1西友岡崎店2F,34.931601,137.165536,1
primagi,愛知県,中川メトロポリス,愛知県名古屋市中川区江松三丁目110番地,35.125371,136.823828,1
primagi,愛知県,豊川メトロポリス,愛知県豊川市下長山町上ｱﾗｲ14-1,34.802452,137.384578,1
