series,prefecture,name,address,latitude,longitude
primagi,千葉県,Game Field 千城台,千葉県千葉市若葉区千城台北3丁目21-1ｲｺｱｽ千城台3F,35.622976,140.189036
primagi,千葉県,LABI津田沼,千葉県習志野市谷津1-16-1ﾓﾘｼｱ津田沼3F,35.689533,140.019094
primagi,千葉県,Morisia AMUSE PARK(モリシア),千葉県習志野市谷津1-16-1ﾓﾘｼｱ津田沼2F,35.689533,140.019094
primagi,千葉県,namcoイオンモール船橋店,千葉県船橋市山手1丁目1番8号,35.712585,139.978117
primagi,千葉県,namcoイオンモール八千代緑が丘店,千葉県八千代市緑ヶ丘2-1-3ｲｵﾝﾓｰﾙ八千代緑ヶ丘4F,35.727868,140.073170
primagi,千葉県,namcoイオンモール幕張新都心店,千葉県千葉市美浜区豊砂1-1ｲｵﾝﾓｰﾙ幕張新都心ｸﾞﾗﾝﾄﾞﾓｰﾙ3階,35.653865,140.031580
primagi,千葉県,namcoシェラトントーキョーベイ店,千葉県浦安市舞浜1-9,35.625690,139.876887
primagi,千葉県,namcoテラスモール松戸店,千葉県松戸市八ヶ崎2-8-1ﾃﾗｽﾓｰﾙ松戸店3F,35.817824,139.934019
primagi,千葉県,namco松戸店,千葉県松戸市松戸1230番地1ﾋﾟｱｻﾞ松戸1F,35.783620,139.900897
primagi,千葉県,namco流山おおたかの森S・C店,千葉県流山市おおたかの森南一丁目5番地の1流山おおたかの森S･C3F,35.870266,139.926599
primagi,千葉県,NICOPAアクロスモール新鎌ヶ谷,千葉県鎌ケ谷市新鎌ヶ谷2-12-1 ｱｸﾛｽﾓｰﾙ新鎌ヶ谷2F,35.780987,140.001294
primagi,千葉県,NICOPAマリンピア,千葉県千葉市美浜区高洲3-13-1 ﾏﾘﾝﾋﾟｱ4階,35.627375,140.072126
primagi,千葉県,PALO市川,千葉県市川市鬼高1-1-1 ﾆｯｹｺﾙﾄﾝﾌﾟﾗｻﾞ2F,35.716312,139.933386
primagi,千葉県,PALO柏,千葉県柏市豊町2-5-25 ｲｵﾝ3F,35.851876,139.961928
primagi,千葉県,アピナ市原,千葉県市原市更級4丁目2番1号 ｱｸﾛｽﾌﾟﾗｻﾞ市原更級F棟1階,35.510370,140.101655
primagi,千葉県,アピナ野田七光台,千葉県野田市七光台4-2 ｲｵﾝﾀｳﾝ野田七光台内,35.981808,139.851648
primagi,千葉県,アミュージアムフルルガーデン八千代,千葉県八千代市村上南1-3-1 フルルガーデン八千代３Ｆ,35.722321,140.117556
primagi,千葉県,アミュージアム稲毛,千葉県千葉市稲毛区小仲台1-4-20ｲｵﾝ稲毛店2F,35.636656,140.095010
primagi,千葉県,アミュージアム茂原,千葉県茂原市高師1619-1,35.436831,140.284429
primagi,千葉県,アミュージアム木津川,千葉県木津川市州見台1丁目1番地1-1ｶﾞｰﾃﾞﾝﾓｰﾙ木津川2F,34.720607,135.817593
primagi,千葉県,イオンタウンユーカリが丘ゲームコーナー,千葉県佐倉市西ﾕｰｶﾘが丘6丁目12番地の3,35.726388,140.150575
primagi,千葉県,イオン高根木戸,千葉県船橋市習志野台1-1-3,35.727111,140.035206
primagi,千葉県,イトーヨーカドーアリオ蘇我,千葉県千葉市中央区川崎町52-7,35.587746,140.122481
primagi,千葉県,イトーヨーカドーセブンパークアリオ柏,千葉県柏市大島田950-1,35.833467,140.012764
primagi,千葉県,イトーヨーカドー我孫子,千葉県我孫子市我孫子4-11-1,35.876737,140.008981
primagi,千葉県,イトーヨーカドー四街道,千葉県四街道市中央5,35.667589,140.165561
primagi,千葉県,イトーヨーカドー松戸,千葉県松戸市松戸1149,35.783792,139.902381
primagi,千葉県,イトーヨーカドー船橋,千葉県船橋市本町7-6-1,35.703253,139.985046
primagi,千葉県,キャッツアイ東千葉,千葉県千葉市中央区祐光3丁目2番1号,35.619579,140.127054
primagi,千葉県,キャッツアイ八千代,千葉県八千代市吉橋1851 ism緑が丘,35.733528,140.072505
primagi,千葉県,クラブセガ稲毛オーツーパーク,千葉県千葉市稲毛区園生町380-1,35.650942,140.118513
primagi,千葉県,ゲームスクエア茂原,千葉県茂原市六ﾂ野2785-1 ﾗｲﾌｶﾞｰﾃﾞﾝ茂原内,35.430919,140.309896
primagi,千葉県,ゲームランドちはら台,千葉県市原市ちはら台西3-4 ｼｮｯﾋﾟﾝｸﾞﾓｰﾙunimoちはら台2F,35.527294,140.173003
primagi,千葉県,ゲームランド千葉NT,千葉県印西市中央北3丁目2番 ｲｵﾝﾓｰﾙ千葉ﾆｭｰﾀｳﾝﾓｰﾙ棟3階,35.802211,140.112095
primagi,千葉県,ゲームランド津田沼,千葉県習志野市津田沼1-23-1 ｲｵﾝﾓｰﾙ津田沼2F,35.690266,140.024906
primagi,千葉県,ジョーシン市川大野,千葉県市川市大野町1-19-1,35.747290,139.941465
primagi,千葉県,シルクハット津田沼,千葉県習志野市津田沼1-2-1十三ﾋﾞﾙ地下1階,35.690343,140.022195
primagi,千葉県,スコナランド酒々井,千葉県印旛郡酒々井町本佐倉457-2トライアル酒々井店２Ｆ,35.721280,140.256849
primagi,千葉県,セガアリーナ蘇我,千葉県千葉市中央区川崎町51-1 ﾊｰﾊﾞｰｼﾃｨ蘇我ﾌｪｽﾃｨﾊﾞﾙｳｫｰｸｱﾐｭｰｽﾞﾒﾝﾄ棟1F,35.591962,140.118384
primagi,千葉県,セガイオンモール銚子,千葉県銚子市三崎町2-2660-1 ｲｵﾝﾓｰﾙ銚子2F,35.710517,140.788025
primagi,千葉県,セガららぽーとTOKYO-BAY,千葉県船橋市浜町2-1-1 北館1FE122区画,35.679301,139.989818
primagi,千葉県,セガ旭,千葉県旭市二3150-1,35.723546,140.639541
primagi,千葉県,セガ松戸,千葉県松戸市日暮1-1-1 八柱駅第2ﾋﾞﾙ2F,35.791344,139.937771
primagi,千葉県,セガ幕張,千葉県千葉市美浜区ひび野1-8 ﾒｯｾ･ｱﾐｭｰｽﾞ･ﾓｰﾙ1F,35.649780,140.042342
primagi,千葉県,ソユーゲームフィールド 木更津,千葉県木更津市築地1番4ｲｵﾝﾓｰﾙ木更津2F,35.358435,139.902743
primagi,千葉県,ソユープレイランドソピア 幕張,千葉県千葉市花見川区幕張町四丁目417-25ｲﾄｰﾖｰｶﾄﾞｰ幕張店2F,35.656315,140.051039
primagi,千葉県,タイトーFステーション ボンベルタ成田,千葉県成田市赤坂2-1-10 ﾎﾞﾝﾍﾞﾙﾀ成田3階,35.777965,140.290276
primagi,千葉県,タイトーFステーションイオン新松戸,千葉県松戸市新松戸3-2-21 ｲｵﾝ新松戸店4階,35.825093,139.915631
primagi,千葉県,タイトーFステーション市川妙典,千葉県市川市妙典4-1-1 ｲｵﾝ市川妙典店2番街2F,35.692538,139.926679
primagi,千葉県,タイトーステーション アリオ蘇我,千葉県千葉市中央区川崎町52-7 ｱﾘｵ蘇我2F,35.588237,140.122471
primagi,千葉県,タイトーステーション セブンパークアリオ柏2号,千葉県柏市大島田1-6-1 ｾﾌﾞﾝﾊﾟｰｸｱﾘｵ柏3F,35.833449,140.012913
primagi,千葉県,タイトーステーション 旭サンモール,千葉県旭市ｲ-2676-1 ｻﾝﾓｰﾙ3F,35.724784,140.659382
primagi,千葉県,タイトーステーション 船橋,千葉県船橋市本町1丁目6-1,35.699881,139.986003
primagi,千葉県,タイトーステーション 柏,千葉県柏市柏2-3-1,35.861517,139.972686
primagi,千葉県,タイトーステーション 茂原アスモ,千葉県茂原市高師1735 茂原ｼｮｯﾋﾟﾝｸﾞﾌﾟﾗｻﾞｱｽﾓ2F,35.435081,140.288007
primagi,千葉県,テクモピア公津の杜,千葉県成田市公津の杜4-5-3 成田ユアエルム3F,35.760036,140.296736
primagi,千葉県,テクモピア船橋南口店,千葉県船橋市本町１－７－６ ドリーム船橋ビル３Ｆ,35.699056,139.985790
primagi,千葉県,トイザらス市川,千葉県市川市鬼高1-1-1ﾆｯｹｺﾙﾄﾝﾌﾟﾗｻﾞｲｰｽﾄ館2F,35.716312,139.933386
primagi,千葉県,トイザらス松戸,千葉県松戸市二ﾂ木1781-2ﾌﾟﾁﾓｰﾙ二ﾂ木2F,35.817373,139.925825
primagi,千葉県,トムソーヤの仲間たちアリオ市原,千葉県市原市更級4丁目3番2ｲﾄｰﾖｰｶﾄﾞｰｱﾘｵ市原2F,35.508066,140.101435
primagi,千葉県,パラボランド東金,千葉県東金市東岩崎8-10ｻﾝﾍﾋﾟｱ3F,35.558602,140.364798
primagi,千葉県,パレパレ稲毛長沼,千葉県千葉市稲毛区長沼原町731-17 ﾌﾚｽﾎﾟ稲毛A2棟-4,35.656956,140.128330
primagi,千葉県,ハローズガーデン市原,千葉県市原市青柳北1-1 MEGAﾄﾞﾝ･ｷﾎｰﾃUNY市原店2F,35.514440,140.066100
primagi,千葉県,ハローズガーデン木更津,千葉県木更津市ほたる野4-2-48 ｱﾋﾟﾀ木更津店2F,35.375869,139.962807
primagi,千葉県,ハロータイトー 流山,千葉県流山市流山9丁目8002号 ｲﾄｰﾖｰｶﾄﾞｰ流山店3F,35.850053,139.899697
primagi,千葉県,ビックカメラ柏,千葉県柏市柏1-1-20 ｽｶｲﾌﾟﾗｻﾞ柏7F,35.862300,139.972171
primagi,千葉県,プラサカプコン成田,千葉県成田市ｳｲﾝｸﾞ土屋24 ｲｵﾝﾓｰﾙ成田2F,35.795575,140.318706
primagi,千葉県,プラサカプコン富津,千葉県富津市青木一丁目5番地1 ｲｵﾝﾓｰﾙ富津2F,35.330455,139.845609
primagi,千葉県,プレビキテミテマツド,千葉県松戸市松戸1307-1 ｷﾃﾐﾃﾏﾂﾄﾞ店内6F南ASOBI諸島,35.782272,139.898692
primagi,千葉県,プレビ南ASOBI諸島ワンズモール,千葉県千葉市稲毛区長沼町330番地50 ﾜﾝｽﾞﾓｰﾙ2F南ASOBI諸島,35.656630,140.117821
primagi,千葉県,マリンガーデンららぽーと船橋,千葉県船橋市浜町2丁目1番1号 ららぽｰとTOKYO-BAY西館3階ﾌﾟﾚﾋﾞﾏﾘﾝｶﾞｰﾃﾞﾝ,35.686139,139.990115
primagi,千葉県,モーリーファンタジーあすみが丘,千葉県千葉市緑区あすみが丘7-1 あすみが丘ﾌﾞﾗﾝﾆｭｰﾓｰﾙ2F,35.520848,140.267644
primagi,千葉県,モーリーファンタジーおゆみ野,千葉県千葉市緑区おゆみ野南5-37-1 MAXﾊﾞﾘｭおゆみ野店2階,35.543822,140.172783
primagi,千葉県,モーリーファンタジーノア,千葉県野田市中根36-1 ｲｵﾝﾉｱ店1階,35.947649,139.875992
primagi,千葉県,モーリーファンタジーユーカリが丘,千葉県佐倉市西ﾕｰｶﾘが丘6-12-3 ｲｵﾝﾀｳﾝ3F,35.726388,140.150575
primagi,千葉県,モーリーファンタジー鎌ヶ谷,千葉県鎌ケ谷市新鎌ヶ谷2-7-1 ｲｵﾝ鎌ヶ谷店2階,35.778477,140.001074
primagi,千葉県,モーリーファンタジー鎌取,千葉県千葉市緑区おゆみ野3-16 ｲｵﾝ鎌取店3階,35.561407,140.177586
primagi,千葉県,モーリーファンタジー館山,千葉県館山市八幡545-1 ｲｵﾝ館山店1階,35.006061,139.861684
primagi,千葉県,モーリーファンタジー市川妙典,千葉県市川市妙典5-3-1 ｲｵﾝ市川妙典店3階,35.692695,139.927549
primagi,千葉県,モーリーファンタジー成田,千葉県成田市ｳｲﾝｸﾞ土屋24 ｲｵﾝ成田店2階,35.795575,140.318706
primagi,千葉県,モーリーファンタジー千葉ニュータウン,千葉県印西市中央北3-1-1 ｲｵﾝ千葉ﾆｭ-ﾀｳﾝ店3階,35.802935,140.113733
primagi,千葉県,モーリーファンタジー船橋,千葉県船橋市山手1-1-8 ｲｵﾝ3階,35.712585,139.978117
primagi,千葉県,モーリーファンタジー銚子,千葉県銚子市三崎町2-2660-1 ｲｵﾝ銚子店2階,35.710517,140.788025
primagi,千葉県,モーリーファンタジー長浦,千葉県袖ケ浦市長浦駅前1-7 ｲｵﾝ長浦店2F,35.450269,139.997657
primagi,千葉県,モーリーファンタジー津田沼,千葉県習志野市津田沼1-23-1 ｲｵﾝ津田沼店3階,35.690303,140.025027
primagi,千葉県,モーリーファンタジー東習志野,千葉県習志野市東習志野6-7-8 ﾏｯｸｽﾊﾞﾘｭ東習志野店1階,35.699309,140.066823
primagi,千葉県,モーリーファンタジー南行徳,千葉県市川市南行徳2-20-25 SOCOLA南行徳店,35.668566,139.905274
primagi,千葉県,モーリーファンタジー柏,千葉県柏市豊町2-5-25 ｲｵﾝ柏店2階,35.851876,139.961928
primagi,千葉県,モーリーファンタジー八街,千葉県八街市文違301 ｲｵﾝ八街店1階,35.681183,140.312261
primagi,千葉県,モーリーファンタジー八千代緑が丘,千葉県八千代市緑が丘2-1-3 ｲｵﾝ八千代緑が丘店4階,35.728066,140.073295
primagi,千葉県,モーリーファンタジー幕張新都心,千葉県千葉市美浜区豊砂1-5 幕張新都心店ﾌｧﾐﾘｰﾓｰﾙ2階,35.657001,140.025889
primagi,千葉県,モーリーファンタジー木更津,千葉県木更津市築地1-4 ｲｵﾝ2階,35.358435,139.902743
primagi,千葉県,ヨドバシカメラ千葉,千葉県千葉市中央区富士見2-3-1 B1,35.611646,140.116511
primagi,千葉県,ラウンドワンスタジアムアリオ柏,千葉県柏市大島田950-1 ｱﾘｵ柏,35.833467,140.012764
primagi,千葉県,宝島新浦安,千葉県浦安市入船1-4-1ｲｵﾝｽﾀｲﾙ新浦安4F,35.649228,139.914703
primagi,千葉県,宝島柏の葉,千葉県柏市若柴175ららぽｰと柏の葉店3F,35.893845,139.950808
